[{"OBJECT_NAME":"STARLINK-5880","OBJECT_ID":"2023-094C","EPOCH":"2026-03-09T06:15:36.503424","MEAN_MOTION":15.02534794,"ECCENTRICITY":0.00012624,"INCLINATION":43.0042,"RA_OF_ASC_NODE":32.8163,"ARG_OF_PERICENTER":275.0069,"MEAN_ANOMALY":85.0629,"EPHEMERIS_TYPE":0,"CLASSIFICATION_TYPE":"U","NORAD_CAT_ID":57220,"ELEMENT_SET_NO":999,"REV_AT_EPOCH":14705,"BSTAR":2.3972433e-5,"MEAN_MOTION_DOT":1.2e-6,"MEAN_MOTION_DDOT":0},{"OBJECT_NAME":"FENGYUN 1C DEB","OBJECT_ID":"1999-025BZN","EPOCH":"2026-03-03T04:13:23.729376","MEAN_MOTION":14.87557859,"ECCENTRICITY":0.01425437,"INCLINATION":98.383,"RA_OF_ASC_NODE":189.7124,"ARG_OF_PERICENTER":136.8849,"MEAN_ANOMALY":224.3635,"EPHEMERIS_TYPE":0,"CLASSIFICATION_TYPE":"U","NORAD_CAT_ID":31608,"ELEMENT_SET_NO":999,"REV_AT_EPOCH":99828,"BSTAR":0.0013394908,"MEAN_MOTION_DOT":0.00014627,"MEAN_MOTION_DDOT":0}]
